*******************************************************************************
Ephemeris / WWW_USER Mon Mar 10 07:31:58 2025 Pasadena, USA      / Horizons    
*******************************************************************************
Target body name: (2017 UX51)                     {source: JPL#22}
Center body name: Earth (399)                     {source: DE441}
Center-site name: Mauna Kea
*******************************************************************************
Start time      : A.D. 2018-Sep-03 04:45:00.0000 UT      
Stop  time      : A.D. 2018-Sep-03 15:57:00.0000 UT      
Step-size       : 1 minutes
*******************************************************************************
Target pole/equ : undefined
Target radii    : undefined                                                    
Center geodetic : 204.5278, 19.8260847, 4.21024   {E-lon(deg),Lat(deg),Alt(km)}
Center cylindric: 204.5278, 6006.35451, 2151.0229 {E-lon(deg),Dxy(km),Dz(km)}
Center pole/equ : ITRF93                          {East-longitude positive}
Center radii    : 6378.137, 6378.137, 6356.752 km {Equator_a, b, pole_c}       
Target primary  : Sun
Vis. interferer : MOON (R_eq= 1737.400) km        {source: DE441}
Rel. light bend : Sun                             {source: DE441}
Rel. lght bnd GM: 1.3271E+11 km^3/s^2                                          
Small-body perts: Yes                             {source: SB441-N16}
Atmos refraction: NO (AIRLESS)
RA format       : HMS
Time format     : CAL 
Calendar mode   : Mixed Julian/Gregorian
RTS-only print  : NO       
EOP file        : eop.250307.p250603                                           
EOP coverage    : DATA-BASED 1962-JAN-20 TO 2025-MAR-07. PREDICTS-> 2025-JUN-02
Units conversion: 1 au= 149597870.700 km, c= 299792.458 km/s, 1 day= 86400.0 s 
Table cut-offs 1: Elevation (-90.0deg=NO ),Airmass (>38.000=NO), Daylight (YES)
Table cut-offs 2: Solar elongation (  0.0,180.0=NO ),Local Hour Angle( 0.0=NO )
Table cut-offs 3: RA/DEC angular rate (     0.0=NO )                           
*******************************************************************************
Initial IAU76/J2000 heliocentric ecliptic osculating elements (au, days, deg.):
  EPOCH=  2458433.5 ! 2018-Nov-11.00 (TDB)         Residual RMS= .12444        
   EC= .7474905367293002   QR= 7.612253692784782   TP= 2459819.8104231078      
   OM= 217.7952286585891   W=  255.0338939179157   IN= 90.52400691057457       
  Equivalent ICRF heliocentric cartesian coordinates (au, au/d):
   X= 8.209785034050050E+00  Y= 6.297741083246843E+00  Z= 1.446459094674425E+00
  VX=-3.080259200599625E-03 VY=-2.498125597102637E-05 VZ=-6.110805734701701E-03
Asteroid physical parameters (km, seconds, rotational period in hours):        
   GM= n.a.                RAD= n.a.               ROTPER= n.a.                
   H= 11.                  G= .150                 B-V= n.a.                   
                           ALBEDO= n.a.            STYP= n.a.                  
*******************************************************************************
 Date__(UT)__HR:MN     R.A._________(ICRF)_________DEC
******************************************************
$$SOE
 2018-Sep-03 15:00 Am  02 45 57.121841 +11 19 36.18423
 2018-Sep-03 15:01 Am  02 45 57.116284 +11 19 36.05539
 2018-Sep-03 15:02 Am  02 45 57.110727 +11 19 35.92653
 2018-Sep-03 15:03 Am  02 45 57.105170 +11 19 35.79767
 2018-Sep-03 15:04 Am  02 45 57.099613 +11 19 35.66881
 2018-Sep-03 15:05 Am  02 45 57.094056 +11 19 35.53995
 2018-Sep-03 15:06 Am  02 45 57.088500 +11 19 35.41108
 2018-Sep-03 15:07 Am  02 45 57.082943 +11 19 35.28220
 2018-Sep-03 15:08 Am  02 45 57.077386 +11 19 35.15333
 2018-Sep-03 15:09 Am  02 45 57.071830 +11 19 35.02445
 2018-Sep-03 15:10 Am  02 45 57.066273 +11 19 34.89556
 2018-Sep-03 15:11 Am  02 45 57.060716 +11 19 34.76667
 2018-Sep-03 15:12 Am  02 45 57.055160 +11 19 34.63778
 2018-Sep-03 15:13 Am  02 45 57.049604 +11 19 34.50888
 2018-Sep-03 15:14 Am  02 45 57.044047 +11 19 34.37998
 2018-Sep-03 15:15 Am  02 45 57.038491 +11 19 34.25107
 2018-Sep-03 15:16 Am  02 45 57.032935 +11 19 34.12217
 2018-Sep-03 15:17 Am  02 45 57.027379 +11 19 33.99325
 2018-Sep-03 15:18 Am  02 45 57.021823 +11 19 33.86433
 2018-Sep-03 15:19 Nm  02 45 57.016267 +11 19 33.73541
 2018-Sep-03 15:20 Nm  02 45 57.010712 +11 19 33.60649
 2018-Sep-03 15:21 Nm  02 45 57.005156 +11 19 33.47756
 2018-Sep-03 15:22 Nm  02 45 56.999600 +11 19 33.34863
 2018-Sep-03 15:23 Nm  02 45 56.994045 +11 19 33.21969
 2018-Sep-03 15:24 Nm  02 45 56.988490 +11 19 33.09075
 2018-Sep-03 15:25 Nm  02 45 56.982934 +11 19 32.96181
 2018-Sep-03 15:26 Nm  02 45 56.977379 +11 19 32.83286
 2018-Sep-03 15:27 Nm  02 45 56.971825 +11 19 32.70390
 2018-Sep-03 15:28 Nm  02 45 56.966270 +11 19 32.57495
 2018-Sep-03 15:29 Nm  02 45 56.960715 +11 19 32.44599
 2018-Sep-03 15:30 Nm  02 45 56.955161 +11 19 32.31702
 2018-Sep-03 15:31 Nm  02 45 56.949606 +11 19 32.18805
 2018-Sep-03 15:32 Nm  02 45 56.944052 +11 19 32.05908
 2018-Sep-03 15:33 Nm  02 45 56.938498 +11 19 31.93011
 2018-Sep-03 15:34 Nm  02 45 56.932944 +11 19 31.80113
 2018-Sep-03 15:35 Nm  02 45 56.927391 +11 19 31.67214
 2018-Sep-03 15:36 Nm  02 45 56.921837 +11 19 31.54316
 2018-Sep-03 15:37 Nm  02 45 56.916284 +11 19 31.41416
 2018-Sep-03 15:38 Nm  02 45 56.910731 +11 19 31.28517
 2018-Sep-03 15:39 Nm  02 45 56.905178 +11 19 31.15617
 2018-Sep-03 15:40 Nm  02 45 56.899625 +11 19 31.02717
 2018-Sep-03 15:41 Nm  02 45 56.894072 +11 19 30.89816
 2018-Sep-03 15:42 Nm  02 45 56.888520 +11 19 30.76915
 2018-Sep-03 15:43 Nm  02 45 56.882968 +11 19 30.64013
 2018-Sep-03 15:44 Nm  02 45 56.877416 +11 19 30.51112
 2018-Sep-03 15:45 Cm  02 45 56.871864 +11 19 30.38209
 2018-Sep-03 15:46 Cm  02 45 56.866312 +11 19 30.25307
 2018-Sep-03 15:47 Cm  02 45 56.860761 +11 19 30.12404
 2018-Sep-03 15:48 Cm  02 45 56.855210 +11 19 29.99500
 2018-Sep-03 15:49 Cm  02 45 56.849659 +11 19 29.86597
 2018-Sep-03 15:50 Cm  02 45 56.844108 +11 19 29.73692
 2018-Sep-03 15:51 Cm  02 45 56.838558 +11 19 29.60788
 2018-Sep-03 15:52 Cm  02 45 56.833008 +11 19 29.47883
 2018-Sep-03 15:53 Cm  02 45 56.827458 +11 19 29.34978
 2018-Sep-03 15:54 Cm  02 45 56.821908 +11 19 29.22072
 2018-Sep-03 15:55 Cm  02 45 56.816359 +11 19 29.09166
 2018-Sep-03 15:56 Cm  02 45 56.810810 +11 19 28.96260
 2018-Sep-03 15:57 Cm  02 45 56.805261 +11 19 28.83353
